NORAD_CAT_ID,OBJECT_NAME,OBJECT_TYPE,EPOCH,MEAN_MOTION,ECCENTRICITY,INCLINATION,RA_OF_ASC_NODE,ARG_OF_PERICENTER,MEAN_ANOMALY,BSTAR,MEAN_MOTION_DOT,MEAN_MOTION_DDOT,TLE_LINE0,TLE_LINE1,TLE_LINE2,SEMIMAJOR_AXIS,PERIOD,APOGEE,PERIGEE,DECAYED
49145.0,STARLINK-3119,PAYLOAD,2021-10-31 14:00:01,15.69787345,0.0004173,70.0002,353.4634,294.2849,354.0304,-0.00036043,-0.00043095,0.0,0 STARLINK-3119,1 49145U 21082R   21304.58334491 -.00043095  00000-0 -36043-3 0  9995,2 49145  70.0002 353.4634 0004173 294.2849 354.0304 15.69787345  7556,6737.642,91.732,362.319,356.696,0.0
49145.0,STARLINK-3119,PAYLOAD,2021-10-31 22:00:01,15.69709446,0.0004087,70.0,352.5264,289.519,82.0296,0.00059469,0.00071277,0.0,0 STARLINK-3119,1 49145U 21082R   21304.91668981  .00071277  00000-0  59469-3 0  9994,2 49145  70.0000 352.5264 0004087 289.5190  82.0296 15.69709446  3676,6737.865,91.737,362.484,356.977,0.0
49145.0,STARLINK-3119,PAYLOAD,2021-11-01 06:00:00,15.6981791,0.0004079,69.9999,351.5898,290.2264,164.3561,-0.00091988,-0.0010894,0.0,0 STARLINK-3119,1 49145U 21082R   21305.25001157 -.00108940  00000-0 -91988-3 0  9990,2 49145  69.9999 351.5898 0004079 290.2264 164.3561 15.69817910  7651,6737.555,91.73,362.168,356.672,0.0
49145.0,STARLINK-3119,PAYLOAD,2021-11-01 14:00:01,15.69705882,0.0004132,69.9994,350.6528,295.1717,242.588,0.00058438,0.00070018,0.0,0 STARLINK-3119,1 49145U 21082R   21305.58334491  .00070018  00000-0  58438-3 0  9991,2 49145  69.9994 350.6528 0004132 295.1717 242.5880 15.69705882  3689,6737.876,91.737,362.525,356.956,0.0
49145.0,STARLINK-3119,PAYLOAD,2021-11-01 22:00:00,15.69743407,0.0004068,69.9995,349.7156,290.4312,330.4396,-0.00029711,-0.00035528,0.0,0 STARLINK-3119,1 49145U 21082R   21305.91667824 -.00035528  00000-0 -29711-3 0  9998,2 49145  69.9995 349.7156 0004068 290.4312 330.4396 15.69743407  7760,6737.768,91.735,362.374,356.892,0.0
49145.0,STARLINK-3119,PAYLOAD,2021-11-02 14:00:01,15.69714194,0.0004269,69.9995,347.8415,294.0869,132.9736,0.00044444,0.00053112,0.0,0 STARLINK-3119,1 49145U 21082R   21306.58334491  .00053112  00000-0  44444-3 0  9990,2 49145  69.9995 347.8415 0004269 294.0869 132.9736 15.69714194  3699,6737.852,91.736,362.593,356.84,0.0
49145.0,STARLINK-3119,PAYLOAD,2021-11-02 22:00:00,15.69721438,0.0004038,69.9993,346.9047,290.1701,220.0191,-4.7355e-05,-5.856e-05,0.0,0 STARLINK-3119,1 49145U 21082R   21306.91667824 -.00005856  00000-0 -47355-4 0  9995,2 49145  69.9993 346.9047 0004038 290.1701 220.0191 15.69721438  3675,6737.831,91.736,362.417,356.975,0.0
49145.0,STARLINK-3119,PAYLOAD,2021-11-03 06:00:00,15.69741675,0.0003966,69.9992,345.968,290.8585,302.4168,-0.00012529,-0.00015139,0.0,0 STARLINK-3119,1 49145U 21082R   21307.25001157 -.00015139  00000-0 -12529-3 0  9993,2 49145  69.9992 345.9680 0003966 290.8585 302.4168 15.69741675  7973,6737.773,91.735,362.31,356.966,0.0
49145.0,STARLINK-3119,PAYLOAD,2021-11-03 14:00:01,15.69713384,0.0004134,69.9986,345.0309,295.367,21.0033,0.00044993,0.00053772,0.0,0 STARLINK-3119,1 49145U 21082R   21307.58334491  .00053772  00000-0  44993-3 0  9992,2 49145  69.9986 345.0309 0004134 295.3670  21.0033 15.69713384  3694,6737.854,91.736,362.504,356.934,0.0
49145.0,STARLINK-3119,PAYLOAD,2021-11-03 22:00:00,15.69707359,0.0003999,69.9986,344.0933,289.6943,109.7947,0.00072885,0.00087566,0.0,0 STARLINK-3119,1 49145U 21082R   21307.91667824  .00087566  00000-0  72885-3 0  9997,2 49145  69.9986 344.0933 0003999 289.6943 109.7947 15.69707359  3742,6737.871,91.737,362.431,357.042,0.0
49145.0,STARLINK-3119,PAYLOAD,2021-11-04 06:00:00,15.6978365,0.0004019,69.9987,343.1566,290.6977,191.8929,-0.0001634,-0.00019703,0.0,0 STARLINK-3119,1 49145U 21082R   21308.25001157 -.00019703  00000-0 -16340-3 0  9990,2 49145  69.9987 343.1566 0004019 290.6977 191.8929 15.69783650  8125,6737.653,91.732,362.226,356.81,0.0
49145.0,STARLINK-3119,PAYLOAD,2021-11-04 14:00:01,15.69803866,0.0003975,69.9983,342.2193,295.595,270.1712,-0.00038559,-0.00046101,0.0,0 STARLINK-3119,1 49145U 21082R   21308.58334491 -.00046101  00000-0 -38559-3 0  9994,2 49145  69.9983 342.2193 0003975 295.5950 270.1712 15.69803866  3670,6737.595,91.731,362.138,356.782,0.0
49145.0,STARLINK-3119,PAYLOAD,2021-11-04 22:00:00,15.69763404,0.0003675,69.9984,341.2823,291.9923,357.0122,0.001109,0.00134402,0.0,0 STARLINK-3119,1 49145U 21082R   21308.91667824  .00134402  00000-0  11090-2 0  9990,2 49145  69.9984 341.2823 0003675 291.9923 357.0122 15.69763404  8237,6737.7109999999975,91.734,362.052,357.1,0.0
49145.0,STARLINK-3119,PAYLOAD,2021-11-05 14:00:01,15.6981697,0.0004003,69.9977,339.4079,296.0417,159.3702,-0.0013615,-0.00160159,0.0,0 STARLINK-3119,1 49145U 21082R   21309.58334491 -.00160159  00000-0 -13615-2 0  9990,2 49145  69.9977 339.4079 0004003 296.0417 159.3702 15.69816970  8336,6737.558000000001,91.73,362.12,356.726,0.0
49145.0,STARLINK-3119,PAYLOAD,2021-11-05 22:00:00,15.69680744,0.0003853,69.9978,338.4703,290.3317,248.2342,-0.0016122,-0.00187921,0.0,0 STARLINK-3119,1 49145U 21082R   21309.91667824 -.00187921  00000-0 -16122-2 0  9998,2 49145  69.9978 338.4703 0003853 290.3317 248.2342 15.69680744  3722,6737.946999999999,91.738,362.409,357.216,0.0
49145.0,STARLINK-3119,PAYLOAD,2021-11-06 04:00:01,15.69495717,0.0003917,69.998,337.7679,289.844,221.0104,0.00068158,0.00081097,0.0,0 STARLINK-3119,1 49145U 21082R   21310.16668981  .00081097  00000-0  68158-3 0  9994,2 49145  69.9980 337.7679 0003917 289.8440 221.0104 15.69495717  8421,6738.477,91.749,362.981,357.70300000000015,0.0
49145.0,STARLINK-3119,PAYLOAD,2021-11-06 08:00:03,15.69498317,0.0003932,69.9979,337.2993,293.0839,79.2591,0.0013762,0.00165649,0.0,0 STARLINK-3119,1 49145U 21082R   21310.33336806  .00165649  00000-0  13762-2 0  9997,2 49145  69.9979 337.2993 0003932 293.0839  79.2591 15.69498317  3707,6738.47,91.749,362.984,357.685,0.0
49145.0,STARLINK-3119,PAYLOAD,2021-11-06 12:00:00,15.69517459,0.0004049,69.9988,336.8292,296.0223,297.6384,0.0023552,0.00288078,0.0,0 STARLINK-3119,1 49145U 21082R   21310.50001157  .00288078  00000-0  23552-2 0  9994,2 49145  69.9988 336.8292 0004049 296.0223 297.6384 15.69517459  8489,6738.415,91.748,363.008,357.551,0.0
49145.0,STARLINK-3119,PAYLOAD,2021-11-06 16:00:00,15.69642498,0.000401,69.9976,336.3623,294.3721,160.7344,0.0010148,0.00122184,0.0,0 STARLINK-3119,1 49145U 21082R   21310.66667824  .00122184  00000-0  10148-2 0  9992,2 49145  69.9976 336.3623 0004010 294.3721 160.7344 15.69642498  3664,6738.057,91.741,362.624,357.22,0.0
49145.0,STARLINK-3119,PAYLOAD,2021-11-06 20:00:01,15.69672857,0.0003936,69.9978,335.8937,291.5624,25.1252,0.0012563,0.00152042,0.0,0 STARLINK-3119,1 49145U 21082R   21310.83335648  .00152042  00000-0  12563-2 0  9996,2 49145  69.9978 335.8937 0003936 291.5624  25.1252 15.69672857  8530,6737.97,91.739,362.487,357.18300000000005,0.0
49145.0,STARLINK-3119,PAYLOAD,2021-11-07 06:00:02,15.69810918,0.0004132,69.9981,334.7227,290.8947,219.6803,-0.00013604,-0.00016465,0.0,0 STARLINK-3119,1 49145U 21082R   21311.25002315 -.00016465  00000-0 -13604-3 0  9993,2 49145  69.9981 334.7227 0004132 290.8947 219.6803 15.69810918  8593,6737.575,91.731,362.224,356.656,0.0
49145.0,STARLINK-3119,PAYLOAD,2021-11-07 14:00:01,15.69815137,0.0004199,69.9974,333.7853,293.6593,300.0459,0.00014696,0.00017418,0.0,0 STARLINK-3119,1 49145U 21082R   21311.58334491  .00017418  00000-0  14696-3 0  9991,2 49145  69.9974 333.7853 0004199 293.6593 300.0459 15.69815137  3663,6737.563,91.731,362.257,356.599,0.0
49145.0,STARLINK-3119,PAYLOAD,2021-11-07 22:00:01,15.69805561,0.000396,69.9976,332.848,288.8754,28.108,-0.00025726,-0.00030886,0.0,0 STARLINK-3119,1 49145U 21082R   21311.91668981 -.00030886  00000-0 -25726-3 0  9994,2 49145  69.9976 332.8480 0003960 288.8754  28.1080 15.69805561  3669,6737.59,91.731,362.12300000000016,356.787,0.0
49145.0,STARLINK-3119,PAYLOAD,2021-11-08 06:00:02,15.697890300000005,0.0003966,69.9985,331.9103,291.5589,108.6077,-0.00041014,-0.00048976,0.0,0 STARLINK-3119,1 49145U 21082R   21312.25002315 -.00048976  00000-0 -41014-3 0  9992,2 49145  69.9985 331.9103 0003966 291.5589 108.6077 15.69789030  8751,6737.638000000001,91.732,362.175,356.83,0.0
49145.0,STARLINK-3119,PAYLOAD,2021-11-08 14:00:01,15.69746504,0.0004071,69.9977,330.9735,294.5963,188.6464,-0.00032642,-0.00039001,0.0,0 STARLINK-3119,1 49145U 21082R   21312.58334491 -.00039001  00000-0 -32642-3 0  9997,2 49145  69.9977 330.9735 0004071 294.5963 188.6464 15.69746504  3672,6737.759,91.735,362.367,356.881,0.0
49145.0,STARLINK-3119,PAYLOAD,2021-11-08 22:00:00,15.6968335,0.0003989,69.998,330.0366,288.9437,277.4147,0.00080437,0.00096671,0.0,0 STARLINK-3119,1 49145U 21082R   21312.91667824  .00096671  00000-0  80437-3 0  9992,2 49145  69.9980 330.0366 0003989 288.9437 277.4147 15.69683350  3660,6737.94,91.738,362.49300000000005,357.117,0.0
49145.0,STARLINK-3119,PAYLOAD,2021-11-09 04:00:00,15.69759997,0.0004032,69.9985,329.3339,289.4854,249.1764,-0.00017885,-0.00021521,0.0,0 STARLINK-3119,1 49145U 21082R   21313.16667824 -.00021521  00000-0 -17885-3 0  9991,2 49145  69.9985 329.3339 0004032 289.4854 249.1764 15.69759997  8897,6737.721,91.734,362.302,356.869,0.0
49145.0,STARLINK-3119,PAYLOAD,2021-11-09 14:00:01,15.69762658,0.0004214,69.9978,328.1624,293.4038,79.2332,2.3982e-05,2.653e-05,0.0,0 STARLINK-3119,1 49145U 21082R   21313.58335648  .00002653  00000-0  23982-4 0  9992,2 49145  69.9978 328.1624 0004214 293.4038  79.2332 15.69762658  3687,6737.7130000000025,91.734,362.417,356.73900000000015,0.0
49145.0,STARLINK-3119,PAYLOAD,2021-11-09 18:00:00,15.697682,0.0004089,69.998,327.6939,290.7888,303.3539,-0.00012461,-0.00015075,0.0,0 STARLINK-3119,1 49145U 21082R   21313.75001157 -.00015075  00000-0 -12461-3 0  9999,2 49145  69.9980 327.6939 0004089 290.7888 303.3539 15.69768200  3674,6737.696999999999,91.733,362.317,356.807,0.0
